NORAD_CAT_ID,OBJECT_NAME,OBJECT_TYPE,EPOCH,MEAN_MOTION,ECCENTRICITY,INCLINATION,RA_OF_ASC_NODE,ARG_OF_PERICENTER,MEAN_ANOMALY,BSTAR,MEAN_MOTION_DOT,MEAN_MOTION_DDOT,TLE_LINE0,TLE_LINE1,TLE_LINE2,SEMIMAJOR_AXIS,PERIOD,APOGEE,PERIGEE,DECAYED
56806.0,STARLINK-6072,PAYLOAD,2024-03-22 20:26:46,14.98327666,0.0002876,69.9988,311.7485,268.0109,92.0721,9.725e-05,1.067e-05,0.0,0 STARLINK-6072,1 56806U 23078AR  24082.85192851  .00001067  00000-0  97250-4 0  9991,2 56806  69.9988 311.7485 0002876 268.0109  92.0721 14.98327666 46557,6950.2,96.107,574.064,570.066,0.0
56806.0,STARLINK-6072,PAYLOAD,2024-03-22 22:02:54,14.98326281,0.0002917,69.9989,311.5806,268.6485,91.434,7.537e-05,8.06e-06,0.0,0 STARLINK-6072,1 56806U 23078AR  24082.91869024  .00000806  00000-0  75370-4 0  9990,2 56806  69.9989 311.5806 0002917 268.6485  91.4340 14.98326281 46307,6950.204,96.107,574.097,570.042,0.0
56806.0,STARLINK-6072,PAYLOAD,2024-03-23 18:52:40,14.98324588,0.0002888,69.9992,309.3923,269.2175,90.8653,-4.2398e-05,-5.99e-06,0.0,0 STARLINK-6072,1 56806U 23078AR  24083.78657577 -.00000599  00000-0 -42398-4 0  9999,2 56806  69.9992 309.3923 0002888 269.2175  90.8653 14.98324588 46696,6950.21,96.107,574.082,570.067,0.0
56806.0,STARLINK-6072,PAYLOAD,2024-03-23 22:04:55,14.98330557,0.000276,69.9991,309.0562,262.0257,98.0588,-6.193e-05,-8.32e-06,0.0,0 STARLINK-6072,1 56806U 23078AR  24083.92009226 -.00000832  00000-0 -61930-4 0  9990,2 56806  69.9991 309.0562 0002760 262.0257  98.0588 14.98330557 46456,6950.191,96.107,573.974,570.138,0.0
56806.0,STARLINK-6072,PAYLOAD,2024-03-24 01:17:11,14.98334806,0.0002703,69.9994,308.7199,263.5345,96.5507,-7.8191e-05,-1.026e-05,0.0,0 STARLINK-6072,1 56806U 23078AR  24084.05360990 -.00001026  00000-0 -78191-4 0  9996,2 56806  69.9994 308.7199 0002703 263.5345  96.5507 14.98334806 46738,6950.178,96.107,573.922,570.164,0.0
56806.0,STARLINK-6072,PAYLOAD,2024-03-24 07:41:44,14.98333778,0.0002334,70.0003,308.0445,281.3831,78.7065,-0.00012185,-1.547e-05,0.0,0 STARLINK-6072,1 56806U 23078AR  24084.32065334 -.00001547  00000-0 -12185-3 0  9998,2 56806  70.0003 308.0445 0002334 281.3831  78.7065 14.98333778 46511,6950.181,96.107,573.668,570.424,0.0
56806.0,STARLINK-6072,PAYLOAD,2024-03-24 18:54:40,14.98325861,0.0002871,69.9987,306.8664,271.8306,88.2524,-7.3591e-06,-1.81e-06,0.0,0 STARLINK-6072,1 56806U 23078AR  24084.78797342 -.00000181  00000-0 -73591-5 0  9992,2 56806  69.9987 306.8664 0002871 271.8306  88.2524 14.98325861 46841,6950.206,96.107,574.066,570.075,0.0
56806.0,STARLINK-6072,PAYLOAD,2024-03-24 22:06:57,14.98326519,0.0002908,69.9988,306.5298,272.8923,87.1903,3.2441e-06,-5.4e-07,0.0,0 STARLINK-6072,1 56806U 23078AR  24084.92149308 -.00000054  00000-0  32441-5 0  9998,2 56806  69.9988 306.5298 0002908 272.8923  87.1903 14.98326519 46603,6950.204,96.107,574.09,570.048,0.0
56806.0,STARLINK-6072,PAYLOAD,2024-03-25 07:43:45,14.98333842,0.0002659,69.9992,305.5195,276.7905,83.2951,4.6777e-06,-3.7e-07,0.0,0 STARLINK-6072,1 56806U 23078AR  24085.32204863 -.00000037  00000-0  46777-5 0  9999,2 56806  69.9992 305.5195 0002659 276.7905  83.2951 14.98333842 46921,6950.181,96.107,573.894,570.198,0.0
56806.0,STARLINK-6072,PAYLOAD,2024-03-25 22:08:57,14.98332042,0.0002737,69.999,304.0056,267.502,92.5826,8.7782e-05,9.55e-06,0.0,0 STARLINK-6072,1 56806U 23078AR  24085.92288611  .00000955  00000-0  87782-4 0  9996,2 56806  69.9990 304.0056 0002737 267.5020  92.5826 14.98332042 46758,6950.187,96.107,573.954,570.149,0.0
56806.0,STARLINK-6072,PAYLOAD,2024-03-26 07:45:45,14.98331858,0.0002843,69.9992,302.9956,271.2677,88.8156,7.6109e-05,8.15e-06,0.0,0 STARLINK-6072,1 56806U 23078AR  24086.32344518  .00000815  00000-0  76109-4 0  9996,2 56806  69.9992 302.9956 0002843 271.2677  88.8156 14.98331858 47078,6950.187,96.107,574.028,570.076,0.0
56806.0,STARLINK-6072,PAYLOAD,2024-03-26 20:34:51,14.9832109,0.0002731,69.9979,301.6478,266.933,93.1517,-9.1348e-05,-1.182e-05,0.0,0 STARLINK-6072,1 56806U 23078AR  24086.85753772 -.00001182  00000-0 -91348-4 0  9992,2 56806  69.9979 301.6478 0002731 266.9330  93.1517 14.98321090 47157,6950.22,96.108,573.984,570.187,0.0
56806.0,STARLINK-6072,PAYLOAD,2024-03-26 22:10:59,14.98320289,0.0002838,69.9985,301.4807,269.912,90.1714,-0.00011655,-1.483e-05,0.0,0 STARLINK-6072,1 56806U 23078AR  24086.92429961 -.00001483  00000-0 -11655-3 0  9996,2 56806  69.9985 301.4807 0002838 269.9120  90.1714 14.98320289 46903,6950.223,96.108,574.06,570.115,0.0
56806.0,STARLINK-6072,PAYLOAD,2024-03-27 14:12:19,14.98325502,0.0003178,69.9986,299.7953,269.393,90.6865,-2.9564e-05,-4.46e-06,0.0,0 STARLINK-6072,1 56806U 23078AR  24087.59189443 -.00000446  00000-0 -29564-4 0  9995,2 56806  69.9986 299.7953 0003178 269.3930  90.6865 14.98325502 47003,6950.207,96.107,574.281,569.863,0.0
56806.0,STARLINK-6072,PAYLOAD,2024-03-27 20:36:51,14.98332084,0.000291,69.9989,299.1229,268.7798,91.3028,-2.4293e-05,-3.83e-06,0.0,0 STARLINK-6072,1 56806U 23078AR  24087.85893102 -.00000383  00000-0 -24293-4 0  9992,2 56806  69.9989 299.1229 0002910 268.7798  91.3028 14.98332084 47309,6950.186,96.107,574.074,570.029,0.0
56806.0,STARLINK-6072,PAYLOAD,2024-03-27 22:12:59,14.9833258,0.0002894,69.9988,298.9545,268.9035,91.1792,-1.7774e-05,-3.05e-06,0.0,0 STARLINK-6072,1 56806U 23078AR  24087.92569049 -.00000305  00000-0 -17774-4 0  9990,2 56806  69.9988 298.9545 0002894 268.9035  91.1792 14.98332580 47052,6950.185,96.107,574.061,570.039,0.0
56806.0,STARLINK-6072,PAYLOAD,2024-03-28 12:38:12,14.98320619,0.000304,69.999,297.4395,269.5944,90.4867,0.00019552,2.24e-05,0.0,0 STARLINK-6072,1 56806U 23078AR  24088.52653042  .00002240  00000-0  19552-3 0  9997,2 56806  69.9990 297.4395 0003040 269.5944  90.4867 14.98320619 47147,6950.222,96.108,574.2,569.974,0.0
56806.0,STARLINK-6072,PAYLOAD,2024-03-28 20:38:52,14.98322959,0.0002961,69.9989,296.5983,274.5578,85.5242,0.00019122,2.189e-05,0.0,0 STARLINK-6072,1 56806U 23078AR  24088.86033062  .00002189  00000-0  19122-3 0  9993,2 56806  69.9989 296.5983 0002961 274.5578  85.5242 14.98322959 47453,6950.215,96.107,574.138,570.022,0.0
56806.0,STARLINK-6072,PAYLOAD,2024-03-28 22:15:00,14.98325608,0.0003023,69.9986,296.43,275.4229,84.6585,0.00017266,1.967e-05,0.0,0 STARLINK-6072,1 56806U 23078AR  24088.92708954  .00001967  00000-0  17266-3 0  9999,2 56806  69.9986 296.4300 0003023 275.4229  84.6585 14.98325608 47202,6950.206,96.107,574.173,569.97,0.0
56806.0,STARLINK-6072,PAYLOAD,2024-03-29 12:40:12,14.98333557,0.0002846,69.9992,294.9149,271.2841,88.7992,2.7442e-05,2.34e-06,0.0,0 STARLINK-6072,1 56806U 23078AR  24089.52792814  .00000234  00000-0  27442-4 0  9998,2 56806  69.9992 294.9149 0002846 271.2841  88.7992 14.98333557 47297,6950.182,96.107,574.025,570.069,0.0
56806.0,STARLINK-6072,PAYLOAD,2024-03-29 20:40:53,14.98335018,0.0002864,69.9991,294.0733,271.2745,88.8086,2.1055e-05,1.58e-06,0.0,0 STARLINK-6072,1 56806U 23078AR  24089.86172629  .00000158  00000-0  21055-4 0  9990,2 56806  69.9991 294.0733 0002864 271.2745  88.8086 14.98335018 47603,6950.177,96.107,574.033,570.052,0.0
56806.0,STARLINK-6072,PAYLOAD,2024-03-29 22:17:01,14.98334711,0.0002873,69.9991,293.905,271.3669,88.716,1.6928e-05,1.09e-06,0.0,0 STARLINK-6072,1 56806U 23078AR  24089.92848637  .00000109  00000-0  16928-4 0  9995,2 56806  69.9991 293.9050 0002873 271.3669  88.7160 14.98334711 47352,6950.178,96.107,574.04,570.047,0.0
56806.0,STARLINK-6072,PAYLOAD,2024-03-30 12:42:14,14.98329914,0.0002722,70.0008,292.3903,273.6487,86.436,-5.7999e-05,-7.85e-06,0.0,0 STARLINK-6072,1 56806U 23078AR  24090.52933076 -.00000785  00000-0 -57999-4 0  9990,2 56806  70.0008 292.3903 0002722 273.6487  86.4360 14.98329914 47705,6950.193,96.107,573.95,570.166,0.0
56806.0,STARLINK-6072,PAYLOAD,2024-03-30 14:18:22,14.9833028,0.0002733,70.0005,292.2219,273.3893,86.6953,-5.3219e-05,-7.28e-06,0.0,0 STARLINK-6072,1 56806U 23078AR  24090.59609022 -.00000728  00000-0 -53219-4 0  9996,2 56806  70.0005 292.2219 0002733 273.3893  86.6953 14.98330280 47451,6950.192,96.107,573.957,570.158,0.0
56806.0,STARLINK-6072,PAYLOAD,2024-03-30 22:19:02,14.98326651,0.0002783,70.0004,291.3804,272.9105,87.1735,-8.6659e-05,-1.127e-05,0.0,0 STARLINK-6072,1 56806U 23078AR  24090.92989349 -.00001127  00000-0 -86659-4 0  9994,2 56806  70.0004 291.3804 0002783 272.9105  87.1735 14.98326651 47503,6950.203,96.107,574.002,570.134,0.0
56806.0,STARLINK-6072,PAYLOAD,2024-03-31 12:44:15,14.98330767,0.0002855,69.9997,289.8654,269.8678,90.2154,-4.4898e-05,-6.29e-06,0.0,0 STARLINK-6072,1 56806U 23078AR  24091.53072969 -.00000629  00000-0 -44898-4 0  9998,2 56806  69.9997 289.8654 0002855 269.8678  90.2154 14.98330767 47857,6950.191,96.107,574.04,570.071,0.0
56806.0,STARLINK-6072,PAYLOAD,2024-03-31 14:20:23,14.98331425,0.0002864,69.9998,289.6974,268.4812,91.6019,-3.4894e-05,-5.09e-06,0.0,0 STARLINK-6072,1 56806U 23078AR  24091.59748879 -.00000509  00000-0 -34894-4 0  9996,2 56806  69.9998 289.6974 0002864 268.4812  91.6019 14.98331425 47606,6950.188,96.107,574.044,570.063,0.0
56806.0,STARLINK-6072,PAYLOAD,2024-03-31 22:21:03,14.98330168,0.0002884,69.9997,288.8555,269.427,90.6558,-4.3529e-05,-6.12e-06,0.0,0 STARLINK-6072,1 56806U 23078AR  24091.93128976 -.00000612  00000-0 -43529-4 0  9994,2 56806  69.9997 288.8555 0002884 269.4270  90.6558 14.98330168 47657,6950.192,96.107,574.062,570.053,0.0
56806.0,STARLINK-6072,PAYLOAD,2024-04-01 12:46:16,14.98321039,0.0003051,69.9986,287.3388,270.6046,89.4764,2.7928e-05,2.4e-06,0.0,0 STARLINK-6072,1 56806U 23078AR  24092.53213375  .00000240  00000-0  27928-4 0  9999,2 56806  69.9986 287.3388 0003051 270.6046  89.4764 14.98321039 48007,6950.221,96.108,574.206,569.965,0.0
56806.0,STARLINK-6072,PAYLOAD,2024-04-01 14:22:24,14.98323418,0.0002963,69.9985,287.171,269.6629,90.419,1.5197e-05,8.8e-07,0.0,0 STARLINK-6072,1 56806U 23078AR  24092.59889298  .00000088  00000-0  15197-4 0  9993,2 56806  69.9985 287.1710 0002963 269.6629  90.4190 14.98323418 47758,6950.213,96.107,574.138,570.019,0.0
